{
  "type": "FeatureCollection",
  "features": [
    {
      "type": "Feature",
      "properties": {
        "norad_id": 29486,
        "name": "GPS BIIRM-2 (PRN 31)",
        "group": "gps-ops",
        "lat": -50.75952441882789,
        "lon": 98.72172559478916,
        "alt_km": 20344.023627833954,
        "timestamp": "2025-12-06T22:38:42.987370+00:00",
        "meta_object_name": "GPS BIIRM-2 (PRN 31)",
        "meta_object_id": "2006-042A",
        "meta_epoch": "2025-12-05T13:29:33.507168",
        "meta_mean_motion": 2.00554326,
        "meta_eccentricity": 0.01073593,
        "meta_inclination": 54.693,
        "meta_ra_of_asc_node": 159.0256,
        "meta_arg_of_pericenter": 51.7863,
        "meta_mean_anomaly": 320.1689,
        "meta_ephemeris_type": 0,
        "meta_classification_type": "U",
        "meta_norad_cat_id": 29486,
        "meta_element_set_no": 999,
        "meta_rev_at_epoch": 14051,
        "meta_bstar": 0,
        "meta_mean_motion_dot": 7.3e-07,
        "meta_mean_motion_ddot": 0,
        "tle_line1": "1 29486U 06042A   25339.56219337  .00000073  00000+0  00000+0 0  9997",
        "tle_line2": "2 29486  54.6930 159.0256 0107359  51.7863 320.1689  2.00554326140518"
      },
      "geometry": {
        "type": "Point",
        "coordinates": [
          98.72172559478916,
          -50.75952441882789
        ]
      }
    },
    {
      "type": "Feature",
      "properties": {
        "norad_id": 29601,
        "name": "GPS BIIRM-3 (PRN 12)",
        "group": "gps-ops",
        "lat": -11.817929423381548,
        "lon": -146.794841543983,
        "alt_km": 20228.79666169785,
        "timestamp": "2025-12-06T22:38:42.987382+00:00",
        "meta_object_name": "GPS BIIRM-3 (PRN 12)",
        "meta_object_id": "2006-052A",
        "meta_epoch": "2025-12-05T23:11:48.178176",
        "meta_mean_motion": 2.00572974,
        "meta_eccentricity": 0.00876305,
        "meta_inclination": 54.9719,
        "meta_ra_of_asc_node": 221.6671,
        "meta_arg_of_pericenter": 87.3693,
        "meta_mean_anomaly": 273.7261,
        "meta_ephemeris_type": 0,
        "meta_classification_type": "U",
        "meta_norad_cat_id": 29601,
        "meta_element_set_no": 999,
        "meta_rev_at_epoch": 13953,
        "meta_bstar": 0,
        "meta_mean_motion_dot": 4.9e-07,
        "meta_mean_motion_ddot": 0,
        "tle_line1": "1 29601U 06052A   25339.96652984  .00000049  00000+0  00000+0 0  9993",
        "tle_line2": "2 29601  54.9719 221.6671 0087630  87.3693 273.7261  2.00572974139535"
      },
      "geometry": {
        "type": "Point",
        "coordinates": [
          -146.794841543983,
          -11.817929423381548
        ]
      }
    },
    {
      "type": "Feature",
      "properties": {
        "norad_id": 32260,
        "name": "GPS BIIRM-4 (PRN 15)",
        "group": "gps-ops",
        "lat": 39.55004627034403,
        "lon": -128.92359474444328,
        "alt_km": 19854.740695216686,
        "timestamp": "2025-12-06T22:38:42.987393+00:00",
        "meta_object_name": "GPS BIIRM-4 (PRN 15)",
        "meta_object_id": "2007-047A",
        "meta_epoch": "2025-12-06T06:31:43.189824",
        "meta_mean_motion": 2.0056467,
        "meta_eccentricity": 0.01643332,
        "meta_inclination": 53.9509,
        "meta_ra_of_asc_node": 88.0257,
        "meta_arg_of_pericenter": 85.1745,
        "meta_mean_anomaly": 276.6803,
        "meta_ephemeris_type": 0,
        "meta_classification_type": "U",
        "meta_norad_cat_id": 32260,
        "meta_element_set_no": 999,
        "meta_rev_at_epoch": 13294,
        "meta_bstar": 0,
        "meta_mean_motion_dot": -2.3e-07,
        "meta_mean_motion_ddot": 0,
        "tle_line1": "1 32260U 07047A   25340.27202766 -.00000023  00000+0  00000+0 0  9991",
        "tle_line2": "2 32260  53.9509  88.0257 0164333  85.1745 276.6803  2.00564670132947"
      },
      "geometry": {
        "type": "Point",
        "coordinates": [
          -128.92359474444328,
          39.55004627034403
        ]
      }
    },
    {
      "type": "Feature",
      "properties": {
        "norad_id": 32384,
        "name": "GPS BIIRM-5 (PRN 29)",
        "group": "gps-ops",
        "lat": -52.86375523128472,
        "lon": 168.43438099510115,
        "alt_km": 20191.684283933344,
        "timestamp": "2025-12-06T22:38:42.987404+00:00",
        "meta_object_name": "GPS BIIRM-5 (PRN 29)",
        "meta_object_id": "2007-062A",
        "meta_epoch": "2025-12-06T07:55:36.402816",
        "meta_mean_motion": 2.00576852,
        "meta_eccentricity": 0.00322142,
        "meta_inclination": 55.1879,
        "meta_ra_of_asc_node": 281.903,
        "meta_arg_of_pericenter": 162.6829,
        "meta_mean_anomaly": 10.1914,
        "meta_ephemeris_type": 0,
        "meta_classification_type": "U",
        "meta_norad_cat_id": 32384,
        "meta_element_set_no": 999,
        "meta_rev_at_epoch": 13164,
        "meta_bstar": 0,
        "meta_mean_motion_dot": -3.7e-07,
        "meta_mean_motion_ddot": 0,
        "tle_line1": "1 32384U 07062A   25340.33028244 -.00000037  00000+0  00000+0 0  9994",
        "tle_line2": "2 32384  55.1879 281.9030 0032214 162.6829  10.1914  2.00576852131642"
      },
      "geometry": {
        "type": "Point",
        "coordinates": [
          168.43438099510115,
          -52.86375523128472
        ]
      }
    },
    {
      "type": "Feature",
      "properties": {
        "norad_id": 32711,
        "name": "GPS BIIRM-6 (PRN 07)",
        "group": "gps-ops",
        "lat": 1.441447562634629,
        "lon": -23.43335990739088,
        "alt_km": 19960.84065383892,
        "timestamp": "2025-12-06T22:38:42.987415+00:00",
        "meta_object_name": "GPS BIIRM-6 (PRN 07)",
        "meta_object_id": "2008-012A",
        "meta_epoch": "2025-12-06T04:37:00.920928",
        "meta_mean_motion": 2.00565248,
        "meta_eccentricity": 0.02021844,
        "meta_inclination": 54.4761,
        "meta_ra_of_asc_node": 157.6343,
        "meta_arg_of_pericenter": 244.8762,
        "meta_mean_anomaly": 113.0288,
        "meta_ephemeris_type": 0,
        "meta_classification_type": "U",
        "meta_norad_cat_id": 32711,
        "meta_element_set_no": 999,
        "meta_rev_at_epoch": 12988,
        "meta_bstar": 0,
        "meta_mean_motion_dot": 6.5e-07,
        "meta_mean_motion_ddot": 0,
        "tle_line1": "1 32711U 08012A   25340.19237177  .00000065  00000+0  00000+0 0  9995",
        "tle_line2": "2 32711  54.4761 157.6343 0202184 244.8762 113.0288  2.00565248129885"
      },
      "geometry": {
        "type": "Point",
        "coordinates": [
          -23.43335990739088,
          1.441447562634629
        ]
      }
    },
    {
      "type": "Feature",
      "properties": {
        "norad_id": 35752,
        "name": "GPS BIIRM-8 (PRN 05)",
        "group": "gps-ops",
        "lat": -17.17795186266069,
        "lon": -132.97613251585003,
        "alt_km": 20250.689504349728,
        "timestamp": "2025-12-06T22:38:42.987427+00:00",
        "meta_object_name": "GPS BIIRM-8 (PRN 05)",
        "meta_object_id": "2009-043A",
        "meta_epoch": "2025-12-06T04:15:17.726400",
        "meta_mean_motion": 2.00565936,
        "meta_eccentricity": 0.00519837,
        "meta_inclination": 56.0865,
        "meta_ra_of_asc_node": 35.042,
        "meta_arg_of_pericenter": 82.0207,
        "meta_mean_anomaly": 285.0233,
        "meta_ephemeris_type": 0,
        "meta_classification_type": "U",
        "meta_norad_cat_id": 35752,
        "meta_element_set_no": 999,
        "meta_rev_at_epoch": 11949,
        "meta_bstar": 0,
        "meta_mean_motion_dot": -7.1e-07,
        "meta_mean_motion_ddot": 0,
        "tle_line1": "1 35752U 09043A   25340.17728850 -.00000071  00000+0  00000+0 0  9997",
        "tle_line2": "2 35752  56.0865  35.0420 0051983  82.0207 285.0233  2.00565936119496"
      },
      "geometry": {
        "type": "Point",
        "coordinates": [
          -132.97613251585003,
          -17.17795186266069
        ]
      }
    },
    {
      "type": "Feature",
      "properties": {
        "norad_id": 36585,
        "name": "GPS BIIF-1  (PRN 25)",
        "group": "gps-ops",
        "lat": -33.293734708452426,
        "lon": -171.8388714976822,
        "alt_km": 20283.91990728823,
        "timestamp": "2025-12-06T22:38:42.987438+00:00",
        "meta_object_name": "GPS BIIF-1  (PRN 25)",
        "meta_object_id": "2010-022A",
        "meta_epoch": "2025-12-06T05:55:19.682976",
        "meta_mean_motion": 2.00552783,
        "meta_eccentricity": 0.01258443,
        "meta_inclination": 54.3013,
        "meta_ra_of_asc_node": 216.3359,
        "meta_arg_of_pericenter": 65.0038,
        "meta_mean_anomaly": 110.8352,
        "meta_ephemeris_type": 0,
        "meta_classification_type": "U",
        "meta_norad_cat_id": 36585,
        "meta_element_set_no": 999,
        "meta_rev_at_epoch": 11372,
        "meta_bstar": 0,
        "meta_mean_motion_dot": 5.1e-07,
        "meta_mean_motion_ddot": 0,
        "tle_line1": "1 36585U 10022A   25340.24675559  .00000051  00000+0  00000+0 0  9993",
        "tle_line2": "2 36585  54.3013 216.3359 0125844  65.0038 110.8352  2.00552783113726"
      },
      "geometry": {
        "type": "Point",
        "coordinates": [
          -171.8388714976822,
          -33.293734708452426
        ]
      }
    }
  ]
}